SOYUZ-MS 26             
1 61043U 24162A   25006.87082446  .00017540  00000+0  30532-3 0  9993
2 61043  51.6384  26.1582 0006308  50.8663 309.2886 15.50839269487331
